{
  "type": "FeatureCollection",
  "name": "nira_left_bank_canal_command_area_pune",
  "crs": {
    "type": "name",
    "properties": {
      "name": "urn:ogc:def:crs:OGC:1.3:CRS84"
    }
  },
  "features": [
    {
      "type": "Feature",
      "id": "NLBC_COMMAND_AREA_BOUNDARY",
      "properties": {
        "feature_type": "Command_Area_Boundary",
        "name": "Nira Left Bank Canal Command Area",
        "project": "Nira Valley Irrigation Project",
        "state": "Maharashtra",
        "district": "Pune",
        "talukas": ["Purandar", "Baramati", "Indapur"],
        "basin": "Krishna - Bhima Sub-basin",
        "source_reservoir": "Veer Dam / Bhatghar Lake (Nira River)",
        "headworks_coordinates": [74.0485, 18.1482],
        "canal_system": "Nira Left Bank Canal (NLBC)",
        "main_canal_length_km": 162.0,
        "culturable_command_area_ha": 66250,
        "gross_command_area_ha": 84500,
        "predominant_soil": "Black Cotton Soil (Vertisols) & Medium Clay Loam",
        "major_crops": ["Sugarcane", "Wheat", "Gram (Chana)", "Jowar", "Pomegranate", "Fodder Maize"],
        "sentinel2_mgrs_tiles": ["43QDA", "43QDV"],
        "utm_zone": "EPSG:32643",
        "status": "Validated Official Geometry"
      },
      "geometry": {
        "type": "Polygon",
        "coordinates": [
          [
            [74.0485, 18.1482],
            [74.0820, 18.1630],
            [74.1250, 18.1880],
            [74.1780, 18.2120],
            [74.2340, 18.2390],
            [74.2980, 18.2580],
            [74.3720, 18.2690],
            [74.4560, 18.2610],
            [74.5280, 18.2380],
            [74.6040, 18.2090],
            [74.6850, 18.1760],
            [74.7620, 18.1320],
            [74.8390, 18.0850],
            [74.9120, 18.0280],
            [74.9780, 17.9720],
            [75.0150, 17.9280],
            [74.9650, 17.8920],
            [74.8890, 17.9250],
            [74.8150, 17.9620],
            [74.7280, 18.0050],
            [74.6350, 18.0480],
            [74.5420, 18.0820],
            [74.4380, 18.1120],
            [74.3350, 18.1280],
            [74.2380, 18.1210],
            [74.1520, 18.1150],
            [74.0890, 18.1250],
            [74.0485, 18.1482]
          ]
        ]
      }
    },
    {
      "type": "Feature",
      "id": "NLBC_MAIN_CANAL_ALIGNMENT",
      "properties": {
        "feature_type": "Main_Canal_Centerline",
        "name": "Nira Left Bank Canal Main Trunk Line (162 km)",
        "flow_direction": "West to East (Gravity Flow)"
      },
      "geometry": {
        "type": "LineString",
        "coordinates": [
          [74.0485, 18.1482],
          [74.0974, 18.1230],
          [74.1550, 18.1620],
          [74.2250, 18.2050],
          [74.3120, 18.2380],
          [74.4250, 18.2450],
          [74.5200, 18.2180],
          [74.6150, 18.1820],
          [74.7100, 18.1410],
          [74.8120, 18.0920],
          [74.9050, 18.0350],
          [74.9850, 17.9650],
          [75.0150, 17.9280]
        ]
      }
    }
  ]
}
